IRIDIUM 106             
1 41917U 17003A   24255.69020855  .00000061  00000+0  14669-4 0  9992
2 41917  86.4034 357.4399 0001894 103.4621 256.6786 14.34214756400975
IRIDIUM 103             
1 41918U 17003B   24255.81705921  .00000337  00000+0  11342-3 0  9991
2 41918  86.4031 357.2887 0001701  86.1928 273.9463 14.34214111401012
IRIDIUM 109             
1 41919U 17003C   24255.82340351  .00000136  00000+0  41427-4 0  9990
2 41919  86.4031 357.3346 0002364  86.7789 273.3677 14.34219744400984
IRIDIUM 102             
1 41920U 17003D   24255.72192293  .00000202  00000+0  65241-4 0  9995
2 41920  86.4032 357.3142 0002173  95.0996 265.0448 14.34218025401056
IRIDIUM 105             
1 41921U 17003E   24256.25075062  .00001176  00000+0  41278-3 0  9993
2 41921  86.4001 325.5463 0002034  94.6104 265.5324 14.34221147402988
IRIDIUM 104             
1 41922U 17003F   24256.29275656  .00000126  00000+0  37924-4 0  9997
2 41922  86.4032 357.1088 0002262  83.2134 276.9319 14.34215400401127
IRIDIUM 114             
1 41923U 17003G   24256.36886146  .00000935  00000+0  32676-3 0  9994
2 41923  86.4032 357.0630 0001891  99.8270 260.3139 14.34223866401134
IRIDIUM 108             
1 41924U 17003H   24256.46690214  .00001594  00000+0  56208-3 0  9994
2 41924  86.3986 325.3736 0002003  97.1702 262.9721 14.34211860403008
